KUIPER-00165            
1 65778U 25217S   25361.50002315 -.00708477  00000+0 -56329-1 0  9993
2 65778  51.8995 356.3597 0006248  79.2078  69.2761 15.02697749  4288
KUIPER-00166            
1 65779U 25217T   25361.38780887  .00044972  00000+0  11887-2 0  9999
2 65779  51.8719 353.1662 0004495  49.3939 310.7439 15.37965723 14305
KUIPER-00167            
1 65780U 25217U   25361.33335648 -.00004466  00000+0 -55829-3 0  9998
2 65780  51.8977   5.4612 0001022 108.9279 356.4732 14.79849715  2214
KUIPER-00168            
1 65781U 25217V   25361.50002315 -.00017240  00000+0 -61017-3 0  9990
2 65781  51.8777 352.7233 0002070 108.3319 118.7940 15.28040660  1624
KUIPER-00169            
1 65782U 25217W   25361.50002315 -.00332803  00000+0 -20893-1 0  9991
2 65782  51.8972 354.6718 0005215  73.0345 297.1376 15.10469607  5628
KUIPER-00170            
1 65783U 25217X   25361.50002315 -.00315667  00000+0 -28077-1 0  9993
2 65783  51.9013 358.1761 0007856  60.8638  27.3897 14.97356645  4323
KUIPER-00171            
1 65784U 25217Y   25361.17287849  .00245164  00000+0  17512-2 0  9999
2 65784  51.8554 342.7748 0010856  70.1062 290.1108 15.72413153 14425
KUIPER-00172            
1 65785U 25217Z   25361.50002315  .00038850  00000+0  17969-2 0  9998
2 65785  51.8803 353.6221 0005553  71.6897  22.9942 15.19765824  2060
KUIPER-00173            
1 65786U 25217AA  25361.50002315 -.01293159  00000+0 -84789-1 0  9990
2 65786  51.8852 354.8620 0001614  51.2957 130.0582 15.10141782  2430
KUIPER-00174            
1 65787U 25217AB  25361.50002315 -.00796990  00000+0 -33826-1 0  9997
2 65787  51.8772 352.8871 0001123  39.9360  67.3035 15.25188189  5823
KUIPER-00176            
1 65788U 25217AC  25361.50002315  .00018663  00000+0  23117-2 0  9993
2 65788  51.9009   2.3938 0001848 122.4172 236.4494 14.82717069  2341
KUIPER-00101            
1 65947U 25228A   25361.50002315 -.00045753  00000+0 -58632-2 0  9994
2 65947  51.8989 319.8261 0001773 170.2092 152.8339 14.80989418  5246
KUIPER-00113            
1 65948U 25228B   25361.50002315 -.00064326  00000+0 -64579-2 0  9999
2 65948  51.8945 315.3467 0005554  78.1448 154.9227 14.91100283  5741
KUIPER-00117            
1 65949U 25228C   25361.50002315 -.00046309  00000+0 -55490-2 0  9993
2 65949  51.8987 317.4546 0010666  80.9327 171.4011 14.83733599  3168
KUIPER-00121            
1 65950U 25228D   25361.50002315 -.01041817  00000+0 -87471-1 0  9998
2 65950  51.8903 312.9145 0004976  91.9134  48.9051 15.00826975  1912
KUIPER-00122            
1 65951U 25228E   25361.19932236  .00055128  00000+0  72338-2 0  9992
2 65951  51.9015 323.6346 0000426 114.0073 246.0934 14.79742082 12469
KUIPER-00123            
1 65952U 25228F   25359.13946781  .00070142  00000+0  92633-2 0  9997
2 65952  51.8998 332.7639 0000613  98.9393 261.1639 14.79340687 12159
KUIPER-00124            
1 65953U 25228G   25361.50002315 -.00044557  00000+0 -53575-2 0  9993
2 65953  51.8987 314.9051 0002453  93.8733 159.3886 14.83617508  5680
KUIPER-00125            
1 65954U 25228H   25361.14497005  .00043082  00000+0  11675-2 0  9993
2 65954  51.8805 310.8544 0006746  75.8568 284.3168 15.37204079 12637
KUIPER-00126            
1 65955U 25228J   25361.50002315 -.00035666  00000+0 -45763-2 0  9996
2 65955  51.9000 319.8441 0000152  51.4233  93.0605 14.80818714  3258
KUIPER-00127            
1 65956U 25228K   25361.50002315 -.00018949  00000+0 -15755-2 0  9990
2 65956  51.8957 316.5789 0005935 108.6907  24.2604 14.97847261  4360
KUIPER-00128            
1 65957U 25228L   25361.50002315 -.00700393  00000+0 -65479-1 0  9999
2 65957  51.8988 313.1920 0003700  95.2433 141.0135 14.96095815  4139
KUIPER-00129            
1 65958U 25228M   25361.50002315 -.00036424  00000+0 -19455-2 0  9991
2 65958  51.8827 310.3851 0002856  53.3499 241.8649 15.14527451  5117
KUIPER-00130            
1 65959U 25228N   25361.50002315 -.00887435  00000+0 -64382-1 0  9996
2 65959  51.8993 311.5683 0006260  90.0185 346.2115 15.06272843  5347
KUIPER-00134            
1 65960U 25228P   25361.16762614  .00044392  00000+0  12483-2 0  9996
2 65960  51.8788 310.9974 0007600  67.6037 292.5754 15.36035222 12635
KUIPER-00135            
1 65961U 25228Q   25361.50002315 -.00922022  00000+0 -66134-1 0  9998
2 65961  51.8938 311.9039 0006462  82.3946 108.8867 15.06798776  5761
KUIPER-00136            
1 65962U 25228R   25361.50002315 -.00749232  00000+0 -44960-1 0  9992
2 65962  51.8868 310.4195 0006350  85.9899 121.1200 15.13110781  2312
KUIPER-00137            
1 65963U 25228S   25361.50002315 -.01848454  00000+0 -75276-1 0  9994
2 65963  51.8838 309.6893 0006349  91.1721 177.3497 15.27595618  2835
KUIPER-00138            
1 65964U 25228T   25361.50002315  .00008746  00000+0  27777-3 0  9999
2 65964  51.8788 309.4330 0008121  80.8736 303.2271 15.33413200  4289
KUIPER-00140            
1 65965U 25228U   25361.50002315 -.01002955  00000+0 -45072-1 0  9995
2 65965  51.8824 309.9863 0007471  65.7154  22.9951 15.23411227  5917
KUIPER-00141            
1 65966U 25228V   25361.14470038  .00067897  00000+0  18293-2 0  9996
2 65966  51.8805 310.8548 0005693  83.8212 276.3423 15.37187061 12635
KUIPER-00146            
1 65967U 25228W   25361.50002315 -.01576971  00000+0 -56058-1 0  9997
2 65967  51.8798 309.4077 0007203  78.5950 310.4089 15.31428122  4300
KUIPER-00149            
1 65968U 25228X   25361.14751574  .00044276  00000+0  12288-2 0  9999
2 65968  51.8808 310.8756 0006042  73.2704 286.8945 15.36456096 12630
KUIPER-00154            
1 65969U 25228Y   25361.02219929  .00061852  00000+0  17106-2 0  9993
2 65969  51.8791 311.5318 0006567  61.5603 298.6045 15.36410795 12610
KUIPER-00157            
1 65970U 25228Z   25361.16440868  .00047341  00000+0  13045-2 0  9993
2 65970  51.8806 310.9911 0007663  81.0094 279.1760 15.36636715 12632
KUIPER-00144            
1 67133U 25301A   25361.41541978  .00024127  00000+0  69698-3 0  9993
2 67133  51.8710  54.3641 0006237 125.1706 234.9864 15.35509765  2629
KUIPER-00164            
1 67134U 25301B   25361.41016464  .00016620  00000+0  47384-3 0  9998
2 67134  51.8730  54.3288 0003221 106.1855 253.9486 15.36187995  2802
KUIPER-00175            
1 67135U 25301C   25361.47167937  .00028408  00000+0  78921-3 0  9995
2 67135  51.8749  53.9860 0002356  58.0716 302.0500 15.36651953  2705
KUIPER-00179            
1 67136U 25301D   25361.47389471  .00035275  00000+0  98752-3 0  9999
2 67136  51.8746  54.0038 0002962  89.0491 271.0834 15.36302591  2817
KUIPER-00181            
1 67137U 25301E   25361.42286382  .00027240  00000+0  81017-3 0  9991
2 67137  51.8655  54.4126 0010131 147.6488 212.5120 15.34493384  2786
KUIPER-00183            
1 67138U 25301F   25361.42529992  .00023568  00000+0  71009-3 0  9998
2 67138  51.8621  54.4270 0011206 152.1760 207.9826 15.34156371  2792
KUIPER-00184            
1 67139U 25301G   25361.42210515  .00037461  00000+0  11117-2 0  9997
2 67139  51.8639  54.4076 0009095 146.9693 213.1862 15.34410762  2904
KUIPER-00186            
1 67140U 25301H   25361.41835132  .00023467  00000+0  68731-3 0  9992
2 67140  51.8690  54.3833 0007612 134.5410 225.6199 15.35084494  2626
KUIPER-00187            
1 67141U 25301J   25361.41252650  .00018769  00000+0  53869-3 0  9996
2 67141  51.8719  54.3455 0004388 118.8940 241.2486 15.35883843  2627
KUIPER-00188            
1 67142U 25301K   25361.41905233  .00038349  00000+0  11170-2 0  9993
2 67142  51.8704  54.3882 0007351 138.9806 221.1733 15.35001172  2622
KUIPER-00191            
1 67143U 25301L   25361.41735919  .00023178  00000+0  67619-3 0  9990
2 67143  51.8680  54.3774 0006689 136.0185 224.1334 15.35220963  2652
KUIPER-00196            
1 67144U 25301M   25361.41090851 -.00009741  00000+0 -26276-3 0  9996
2 67144  51.8736  54.3323 0003836 107.5905 252.5501 15.36040506  2621
KUIPER-00204            
1 67145U 25301N   25361.47223376  .00028304  00000+0  78769-3 0  9991
2 67145  51.8749  53.9872 0002098  75.9484 284.1735 15.36600659  2743
KUIPER-00210            
1 67146U 25301P   25361.42467502  .00022480  00000+0  67646-3 0  9999
2 67146  51.8608  54.4223 0010506 153.8657 206.2860 15.34232622  2793
KUIPER-00221            
1 67147U 25301Q   25361.41320742  .00017848  00000+0  51447-3 0  9997
2 67147  51.8725  54.3489 0005058 116.0353 244.1154 15.35783545  2622
KUIPER-00232            
1 67148U 25301R   25361.47097550  .00030449  00000+0  84193-3 0  9998
2 67148  51.8748  53.9834 0001662  54.5540 305.5602 15.36763322  2631
KUIPER-00241            
1 67149U 25301S   25361.40937051  .00038521  00000+0  10765-2 0  9993
2 67149  51.8750  54.3186 0003000 103.9111 256.2209 15.36314548  2953
KUIPER-00245            
1 67150U 25301T   25361.41387742  .00018228  00000+0  52672-3 0  9998
2 67150  51.8732  54.3519 0005051 124.7522 235.3940 15.35689589  2623
KUIPER-00246            
1 67151U 25301U   25361.41154582  .00024712  00000+0  70331-3 0  9990
2 67151  51.8742  54.3351 0004015 118.1199 242.0193 15.35972019  2645
KUIPER-00247            
1 67152U 25301V   25361.42597630  .00022956  00000+0  69435-3 0  9998
2 67152  51.8635  54.4320 0011129 157.2165 202.9316 15.34049432  2628
KUIPER-00248            
1 67153U 25301W   25361.35599752  .00032104  00000+0  94522-3 0  9999
2 67153  51.8684  54.7154 0008855 145.1899 214.9667 15.34737465  2782
KUIPER-00249            
1 67154U 25301X   25361.41966390  .00023950  00000+0  70614-3 0  9998
2 67154  51.8659  54.3919 0008142 142.5229 217.6325 15.34859068  2625
KUIPER-00250            
1 67155U 25301Y   25361.41612397  .00030820  00000+0  88928-3 0  9995
2 67155  51.8719  54.3679 0006212 131.7489 228.4029 15.35411044  2653
KUIPER-00251            
1 67156U 25301Z   25361.42045741  .00023653  00000+0  69811-3 0  9996
2 67156  51.8671  54.3974 0008775 140.6365 219.5259 15.34829238  2818
